NORAD_CAT_ID,OBJECT_NAME,OBJECT_TYPE,EPOCH,MEAN_MOTION,ECCENTRICITY,INCLINATION,RA_OF_ASC_NODE,ARG_OF_PERICENTER,MEAN_ANOMALY,BSTAR,MEAN_MOTION_DOT,MEAN_MOTION_DDOT,TLE_LINE0,TLE_LINE1,TLE_LINE2,SEMIMAJOR_AXIS,PERIOD,APOGEE,PERIGEE,DECAYED
54789.0,STARLINK-5446,PAYLOAD,2023-06-13 17:51:19,15.08832017,9.91e-05,53.217,182.8162,83.4937,276.6167,-7.5523e-06,-4.08e-06,0.0,0 STARLINK-5446,1 54789U 22175AH  23164.74397369 -.00000408  00000-0 -75523-5 0  9995,2 54789  53.2170 182.8162 0000991  83.4937 276.6167 15.08832017 27227,6917.905,95.438,540.455,539.084,0.0
54789.0,STARLINK-5446,PAYLOAD,2023-06-14 01:48:15,15.08828537,9.4e-05,53.2169,181.3287,82.6485,277.4614,0.00011502,1.543e-05,0.0,0 STARLINK-5446,1 54789U 22175AH  23165.07517431  .00001543  00000-0  11502-3 0  9990,2 54789  53.2169 181.3287 0000940  82.6485 277.4614 15.08828537 29433,6917.915,95.438,540.431,539.13,0.0
54789.0,STARLINK-5446,PAYLOAD,2023-06-14 17:42:06,15.08833378,9.7e-05,53.2171,178.3555,82.3214,277.7888,0.00011206,1.496e-05,0.0,0 STARLINK-5446,1 54789U 22175AH  23165.73757488  .00001496  00000-0  11206-3 0  9999,2 54789  53.2171 178.3555 0000970  82.3214 277.7888 15.08833378 29536,6917.901,95.438,540.437,539.095,0.0
54789.0,STARLINK-5446,PAYLOAD,2023-06-15 01:39:02,15.08840408,9.76e-05,53.217,176.868,76.841,283.2691,6.2999e-05,7.15e-06,0.0,0 STARLINK-5446,1 54789U 22175AH  23166.06877324  .00000715  00000-0  62999-4 0  9997,2 54789  53.2170 176.8680 0000976  76.8410 283.2691 15.08840408 27421,6917.879,95.438,540.419,539.069,0.0
54789.0,STARLINK-5446,PAYLOAD,2023-06-15 09:35:57,15.08842234,9.96e-05,53.2171,175.3813,77.7349,282.3754,7.2384e-05,8.64e-06,0.0,0 STARLINK-5446,1 54789U 22175AH  23166.39997122  .00000864  00000-0  72384-4 0  9996,2 54789  53.2171 175.3813 0000996  77.7349 282.3754 15.08842234 29631,6917.874,95.437,540.428,539.05,0.0
54789.0,STARLINK-5446,PAYLOAD,2023-06-15 17:32:52,15.08845061,9.96e-05,53.217,173.8945,75.3566,284.7536,8.1325e-05,1.007e-05,0.0,0 STARLINK-5446,1 54789U 22175AH  23166.73116811  .00001007  00000-0  81325-4 0  9997,2 54789  53.2170 173.8945 0000996  75.3566 284.7536 15.08845061 29684,6917.865,95.437,540.419,539.041,0.0
54789.0,STARLINK-5446,PAYLOAD,2023-06-16 01:29:48,15.08848539,0.0001001,53.217,172.4076,76.0523,284.058,6.9153e-05,8.13e-06,0.0,0 STARLINK-5446,1 54789U 22175AH  23167.06236464  .00000813  00000-0  69153-4 0  9990,2 54789  53.2170 172.4076 0001001  76.0523 284.0580 15.08848539 27574,6917.854,95.437,540.412,539.027,0.0
54789.0,STARLINK-5446,PAYLOAD,2023-06-16 07:51:20,15.08851427,0.0001023,53.2171,171.2181,75.594,284.5166,6.9151e-05,8.13e-06,0.0,0 STARLINK-5446,1 54789U 22175AH  23167.32732105  .00000813  00000-0  69151-4 0  9990,2 54789  53.2171 171.2181 0001023  75.5940 284.5166 15.08851427 29779,6917.845,95.437,540.418,539.003,0.0
54789.0,STARLINK-5446,PAYLOAD,2023-06-16 17:23:39,15.08849562,0.0001011,53.2172,169.4343,77.5152,282.5953,3.6619e-05,2.95e-06,0.0,0 STARLINK-5446,1 54789U 22175AH  23167.72476024  .00000295  00000-0  36619-4 0  9996,2 54789  53.2172 169.4343 0001011  77.5152 282.5953 15.08849562 29839,6917.851,95.437,540.416,539.017,0.0
54789.0,STARLINK-5446,PAYLOAD,2023-06-17 06:06:44,15.08848173,0.0001064,53.2176,167.0556,79.0811,281.03,-2.3292e-06,-3.25e-06,0.0,0 STARLINK-5446,1 54789U 22175AH  23168.25467936 -.00000325  00000-0 -23292-5 0  9997,2 54789  53.2176 167.0556 0001064  79.0811 281.0300 15.08848173 27756,6917.855,95.437,540.456,538.984,0.0
54789.0,STARLINK-5446,PAYLOAD,2023-06-17 07:42:07,15.08848063,0.0001028,53.2174,166.7582,79.7626,280.3482,-1.3375e-06,-3.09e-06,0.0,0 STARLINK-5446,1 54789U 22175AH  23168.32091887 -.00000309  00000-0 -13375-5 0  9996,2 54789  53.2174 166.7582 0001028  79.7626 280.3482 15.08848063 29922,6917.856,95.437,540.432,539.01,0.0
54789.0,STARLINK-5446,PAYLOAD,2023-06-17 17:14:26,15.08842437,0.0001035,53.2173,164.9742,78.9011,281.2098,-5.4631e-05,-1.157e-05,0.0,0 STARLINK-5446,1 54789U 22175AH  23168.71836234 -.00001157  00000-0 -54631-4 0  9993,2 54789  53.2173 164.9742 0001035  78.9011 281.2098 15.08842437 27825,6917.873,95.437,540.454,539.022,0.0
54789.0,STARLINK-5446,PAYLOAD,2023-06-18 09:08:18,15.08839265,0.0001091,53.2173,162.0003,81.2056,278.906,-9.8498e-05,-1.855e-05,0.0,0 STARLINK-5446,1 54789U 22175AH  23169.38076501 -.00001855  00000-0 -98498-4 0  9994,2 54789  53.2173 162.0003 0001091  81.2056 278.9060 15.08839265 30081,6917.883,95.438,540.502,538.993,0.0
54789.0,STARLINK-5446,PAYLOAD,2023-06-18 17:05:13,15.08839957,0.0001101,53.2174,160.5143,81.5771,278.5346,-6.0672e-05,-1.253e-05,0.0,0 STARLINK-5446,1 54789U 22175AH  23169.71196302 -.00001253  00000-0 -60672-4 0  9998,2 54789  53.2174 160.5143 0001101  81.5771 278.5346 15.08839957 30136,6917.881,95.438,540.507,538.984,0.0
54789.0,STARLINK-5446,PAYLOAD,2023-06-19 08:59:04,15.08841172,0.0001115,53.2172,157.5398,84.7402,275.3717,-3.4709e-06,-3.43e-06,0.0,0 STARLINK-5446,1 54789U 22175AH  23170.37435951 -.00000343  00000-0 -34709-5 0  9990,2 54789  53.2172 157.5398 0001115  84.7402 275.3717 15.08841172 28072,6917.877,95.437,540.513,538.97,0.0
54789.0,STARLINK-5446,PAYLOAD,2023-06-20 08:49:51,15.08837352,0.0001134,53.2173,153.0796,83.3998,276.7124,3.9725e-05,3.44e-06,0.0,0 STARLINK-5446,1 54789U 22175AH  23171.36796101  .00000344  00000-0  39725-4 0  9998,2 54789  53.2173 153.0796 0001134  83.3998 276.7124 15.08837352 30381,6917.888,95.438,540.538,538.969,0.0
54789.0,STARLINK-5446,PAYLOAD,2023-06-21 02:19:06,15.08836785,0.0001176,53.2174,149.8087,84.0664,276.0462,-1.8048e-05,-5.75e-06,0.0,0 STARLINK-5446,1 54789U 22175AH  23172.09660444 -.00000575  00000-0 -18048-4 0  9992,2 54789  53.2174 149.8087 0001176  84.0664 276.0462 15.08836785 28331,6917.89,95.438,540.569,538.942,0.0
54789.0,STARLINK-5446,PAYLOAD,2023-06-21 03:54:29,15.08837688,0.0001185,53.2174,149.5113,84.094,276.0187,-1.1196e-05,-4.66e-06,0.0,0 STARLINK-5446,1 54789U 22175AH  23172.16284373 -.00000466  00000-0 -11196-4 0  9999,2 54789  53.2174 149.5113 0001185  84.0940 276.0187 15.08837688 30504,6917.887,95.438,540.572,538.933,0.0
54789.0,STARLINK-5446,PAYLOAD,2023-06-21 15:02:11,15.08838463,0.0001181,53.2174,147.4298,82.7547,277.3579,-1.6996e-05,-5.58e-06,0.0,0 STARLINK-5446,1 54789U 22175AH  23172.62652363 -.00000558  00000-0 -16996-4 0  9993,2 54789  53.2174 147.4298 0001181  82.7547 277.3579 15.08838463 30577,6917.885,95.438,540.567,538.933,0.0
54789.0,STARLINK-5446,PAYLOAD,2023-06-22 08:31:26,15.08849724,0.0001249,53.2177,144.1599,94.9062,265.2072,-0.00015602,-2.771e-05,0.0,0 STARLINK-5446,1 54789U 22175AH  23173.35516350 -.00002771  00000-0 -15602-3 0  9990,2 54789  53.2177 144.1599 0001249  94.9062 265.2072 15.08849724 28528,6917.851,95.437,540.58,538.852,0.0
54789.0,STARLINK-5446,PAYLOAD,2023-06-23 02:00:41,15.08833997,0.0001217,53.2178,140.889,93.9209,266.1922,-1.6597e-05,-5.52e-06,0.0,0 STARLINK-5446,1 54789U 22175AH  23174.08380925 -.00000552  00000-0 -16597-4 0  9998,2 54789  53.2178 140.8890 0001217  93.9209 266.1922 15.08833997 28634,6917.899,95.438,540.606,538.922,0.0
54789.0,STARLINK-5446,PAYLOAD,2023-06-23 08:22:13,15.08839573,0.0001237,53.2178,139.6994,93.0651,267.0483,3.1194e-05,2.09e-06,0.0,0 STARLINK-5446,1 54789U 22175AH  23174.34876463  .00000209  00000-0  31194-4 0  9991,2 54789  53.2178 139.6994 0001237  93.0651 267.0483 15.08839573 28671,6917.882,95.438,540.602,538.891,0.0
54789.0,STARLINK-5446,PAYLOAD,2023-06-23 14:43:46,15.08832442,0.0001389,53.2186,138.5085,86.0375,274.0776,-1.8279e-05,-5.79e-06,0.0,0 STARLINK-5446,1 54789U 22175AH  23174.61373211 -.00000579  00000-0 -18279-4 0  9995,2 54789  53.2186 138.5085 0001389  86.0375 274.0776 15.08832442 28718,6917.903,95.438,540.729,538.808,0.0
54789.0,STARLINK-5446,PAYLOAD,2023-06-24 06:37:37,15.088379,0.0001461,53.2186,135.5351,102.4192,257.6963,2.5234e-05,1.14e-06,0.0,0 STARLINK-5446,1 54789U 22175AH  23175.27612893  .00000114  00000-0  25234-4 0  9992,2 54789  53.2186 135.5351 0001461 102.4192 257.6963 15.08837900 28812,6917.887,95.438,540.763,538.741,0.0
54789.0,STARLINK-5446,PAYLOAD,2023-06-25 06:28:24,15.08847872,0.0001182,53.2177,131.0762,107.3181,252.7941,4.9348e-05,4.98e-06,0.0,0 STARLINK-5446,1 54789U 22175AH  23176.26972287  .00000498  00000-0  49348-4 0  9995,2 54789  53.2177 131.0762 0001182 107.3181 252.7941 15.08847872 28968,6917.856,95.437,540.539,538.904,0.0
54789.0,STARLINK-5446,PAYLOAD,2023-06-25 14:25:20,15.08840434,0.0001266,53.2192,129.587,92.8923,267.2214,3.9819e-05,3.46e-06,0.0,0 STARLINK-5446,1 54789U 22175AH  23176.60092761  .00000346  00000-0  39819-4 0  9997,2 54789  53.2192 129.5870 0001266  92.8923 267.2214 15.08840434 29010,6917.879,95.438,540.62,538.868,0.0
54789.0,STARLINK-5446,PAYLOAD,2023-06-26 06:19:10,15.0884959,0.0001311,53.218,126.6144,92.7469,267.3673,6.2303e-05,7.04e-06,0.0,0 STARLINK-5446,1 54789U 22175AH  23177.26332006  .00000704  00000-0  62303-4 0  9991,2 54789  53.2180 126.6144 0001311  92.7469 267.3673 15.08849590 29117,6917.851,95.437,540.623,538.809,0.0
54789.0,STARLINK-5446,PAYLOAD,2023-06-26 15:51:30,15.08831516,0.0001188,53.2174,124.8308,93.4472,266.6656,-4.0047e-05,-9.25e-06,0.0,0 STARLINK-5446,1 54789U 22175AH  23177.66077445 -.00000925  00000-0 -40047-4 0  9996,2 54789  53.2174 124.8308 0001188  93.4472 266.6656 15.08831516 29174,6917.906,95.438,540.593,538.949,0.0
54789.0,STARLINK-5446,PAYLOAD,2023-06-27 02:59:12,15.08837753,0.0001324,53.2179,122.7508,93.5472,266.5672,-2.7676e-05,-7.28e-06,0.0,0 STARLINK-5446,1 54789U 22175AH  23178.12445186 -.00000728  00000-0 -27676-4 0  9993,2 54789  53.2179 122.7508 0001324  93.5472 266.5672 15.08837753 29245,6917.887,95.438,540.668,538.836,0.0
54789.0,STARLINK-5446,PAYLOAD,2023-06-28 06:00:45,15.08842028,0.0001069,53.218,117.6961,89.7354,270.3761,-1.3422e-05,-5.01e-06,0.0,0 STARLINK-5446,1 54789U 22175AH  23179.25052971 -.00000501  00000-0 -13422-4 0  9997,2 54789  53.2180 117.6961 0001069  89.7354 270.3761 15.08842028 29417,6917.874,95.437,540.479,539.0,0.0
